start=new Date('2022-07-08T00:00:00.000Z').valueOf();
sats=[{"COUNTRY_CODE":"US","NORAD_CAT_ID":"46583","ARG_OF_PERICENTER":"82.0806","PERIOD":"95.592","OBJECT_NAME":"STARLINK-1729","TLE_LINE2":"2 46583  53.0570  75.8872 0001461  82.0806 278.0349 15.06400579 97423","MEAN_MOTION_DDOT":"0.0000000000000","FILE":"3509421","TIME_SYSTEM":"UTC","SEMIMAJOR_AXIS":"6925.347","CENTER_NAME":"EARTH","MEAN_ANOMALY":"278.0349","EPOCH":"2022-07-07T20:23:27.290688","RCS_SIZE":"LARGE","DECAY_DATE":null,"OBJECT_TYPE":"PAYLOAD","INCLINATION":"53.0570","MEAN_MOTION":"15.06400579","MEAN_ELEMENT_THEORY":"SGP4","REF_FRAME":"TEME","EPHEMERIS_TYPE":"0","SITE":"AFETR","OBJECT_ID":"2020-070BD","APOAPSIS":"548.224","MEAN_MOTION_DOT":"0.00001034","GP_ID":"207607292","REV_AT_EPOCH":"9742","ELEMENT_SET_NO":"999","LAUNCH_DATE":"2020-10-06","BSTAR":"0.00008831300000","TLE_LINE1":"1 46583U 20070BD  22188.84962142  .00001034  00000-0  88313-4 0  9997","ECCENTRICITY":"0.00014610","RA_OF_ASC_NODE":"75.8872","PERIAPSIS":"546.200","CLASSIFICATION_TYPE":"U"},{"OBJECT_ID":"2020-070BE","GP_ID":"207629264","MEAN_MOTION_DOT":"-0.00000562","APOAPSIS":"548.336","EPHEMERIS_TYPE":"0","SITE":"AFETR","REF_FRAME":"TEME","MEAN_ELEMENT_THEORY":"SGP4","PERIAPSIS":"546.127","CLASSIFICATION_TYPE":"U","RA_OF_ASC_NODE":"55.8008","BSTAR":"-0.00001886400000","TLE_LINE1":"1 46584U 20070BE  22188.86989739 -.00000562  00000-0 -18864-4 0  9992","ECCENTRICITY":"0.00015950","REV_AT_EPOCH":"9769","ELEMENT_SET_NO":"999","LAUNCH_DATE":"2020-10-06","FILE":"3509470","MEAN_MOTION_DDOT":"0.0000000000000","TIME_SYSTEM":"UTC","TLE_LINE2":"2 46584  53.0558  55.8008 0001595  78.8983 281.2185 15.06394234 97699","ARG_OF_PERICENTER":"78.8983","PERIOD":"95.593","OBJECT_NAME":"STARLINK-1732","COUNTRY_CODE":"US","NORAD_CAT_ID":"46584","MEAN_MOTION":"15.06394234","INCLINATION":"53.0558","OBJECT_TYPE":"PAYLOAD","DECAY_DATE":null,"MEAN_ANOMALY":"281.2185","EPOCH":"2022-07-07T20:52:39.134496","CENTER_NAME":"EARTH","SEMIMAJOR_AXIS":"6925.366","RCS_SIZE":"LARGE"},{"COUNTRY_CODE":"US","NORAD_CAT_ID":"46585","ARG_OF_PERICENTER":"69.8238","PERIOD":"95.592","OBJECT_NAME":"STARLINK-1736","TLE_LINE2":"2 46585  53.0545  55.7073 0001342  69.8238 290.2895 15.06398527 97697","FILE":"3509470","MEAN_MOTION_DDOT":"0.0000000000000","TIME_SYSTEM":"UTC","CENTER_NAME":"EARTH","MEAN_ANOMALY":"290.2895","EPOCH":"2022-07-07T21:17:49.346016","SEMIMAJOR_AXIS":"6925.353","RCS_SIZE":"LARGE","DECAY_DATE":null,"OBJECT_TYPE":"PAYLOAD","MEAN_MOTION":"15.06398527","INCLINATION":"53.0545","MEAN_ELEMENT_THEORY":"SGP4","REF_FRAME":"TEME","EPHEMERIS_TYPE":"0","SITE":"AFETR","OBJECT_ID":"2020-070BF","MEAN_MOTION_DOT":"0.00000360","GP_ID":"207627758","APOAPSIS":"548.147","ELEMENT_SET_NO":"999","REV_AT_EPOCH":"9769","LAUNCH_DATE":"2020-10-06","BSTAR":"0.00004303200000","ECCENTRICITY":"0.00013420","TLE_LINE1":"1 46585U 20070BF  22188.88737669  .00000360  00000-0  43032-4 0  9997","RA_OF_ASC_NODE":"55.7073","PERIAPSIS":"546.289","CLASSIFICATION_TYPE":"U"},{"OBJECT_ID":"2020-070BG","GP_ID":"207628986","MEAN_MOTION_DOT":"0.00002272","APOAPSIS":"548.116","EPHEMERIS_TYPE":"0","SITE":"AFETR","REF_FRAME":"TEME","MEAN_ELEMENT_THEORY":"SGP4","PERIAPSIS":"546.279","CLASSIFICATION_TYPE":"U","RA_OF_ASC_NODE":"55.7640","BSTAR":"0.00017137000000","ECCENTRICITY":"0.00013260","TLE_LINE1":"1 46586U 20070BG  22188.87726386  .00002272  00000-0  17137-3 0  9991","ELEMENT_SET_NO":"999","REV_AT_EPOCH":"9769","LAUNCH_DATE":"2020-10-06","FILE":"3509470","MEAN_MOTION_DDOT":"0.0000000000000","TIME_SYSTEM":"UTC","TLE_LINE2":"2 46586  53.0545  55.7640 0001326  79.0442 281.0697 15.06405294 97698","PERIOD":"95.592","ARG_OF_PERICENTER":"79.0442","OBJECT_NAME":"STARLINK-1737","COUNTRY_CODE":"US","NORAD_CAT_ID":"46586","MEAN_MOTION":"15.06405294","INCLINATION":"53.0545","OBJECT_TYPE":"PAYLOAD","DECAY_DATE":null,"MEAN_ANOMALY":"281.0697","CENTER_NAME":"EARTH","EPOCH":"2022-07-07T21:03:15.597504","SEMIMAJOR_AXIS":"6925.332","RCS_SIZE":"LARGE"},{"CLASSIFICATION_TYPE":"U","PERIAPSIS":"546.082","RA_OF_ASC_NODE":"55.8497","ECCENTRICITY":"0.00016070","TLE_LINE1":"1 46588U 20070BJ  22188.85883398  .00002803  00000-0  20695-3 0  9991","BSTAR":"0.00020695000000","LAUNCH_DATE":"2020-10-06","ELEMENT_SET_NO":"999","REV_AT_EPOCH":"9770","APOAPSIS":"548.307","GP_ID":"207607341","MEAN_MOTION_DOT":"0.00002803","OBJECT_ID":"2020-070BJ","SITE":"AFETR","EPHEMERIS_TYPE":"0","REF_FRAME":"TEME","MEAN_ELEMENT_THEORY":"SGP4","INCLINATION":"53.0555","MEAN_MOTION":"15.06406198","OBJECT_TYPE":"PAYLOAD","DECAY_DATE":null,"RCS_SIZE":"LARGE","SEMIMAJOR_AXIS":"6925.330","CENTER_NAME":"EARTH","EPOCH":"2022-07-07T20:36:43.255872","MEAN_ANOMALY":"287.0152","TIME_SYSTEM":"UTC","MEAN_MOTION_DDOT":"0.0000000000000","FILE":"3509424","TLE_LINE2":"2 46588  53.0555  55.8497 0001607  73.1013 287.0152 15.06406198 97701","OBJECT_NAME":"STARLINK-1746","PERIOD":"95.592","ARG_OF_PERICENTER":"73.1013","NORAD_CAT_ID":"46588","COUNTRY_CODE":"US"},{"REF_FRAME":"TEME","MEAN_ELEMENT_THEORY":"SGP4","GP_ID":"207628764","MEAN_MOTION_DOT":"0.00002623","APOAPSIS":"548.108","OBJECT_ID":"2020-070BK","SITE":"AFETR","EPHEMERIS_TYPE":"0","ECCENTRICITY":"0.00013210","TLE_LINE1":"1 46589U 20070BK  22188.85146281  .00002623  00000-0  19491-3 0  9997","BSTAR":"0.00019491000000","LAUNCH_DATE":"2020-10-06","REV_AT_EPOCH":"9768","ELEMENT_SET_NO":"999","CLASSIFICATION_TYPE":"U","PERIAPSIS":"546.278","RA_OF_ASC_NODE":"55.8871","OBJECT_NAME":"STARLINK-1749","ARG_OF_PERICENTER":"82.3487","PERIOD":"95.592","NORAD_CAT_ID":"46589","COUNTRY_CODE":"US","TIME_SYSTEM":"UTC","FILE":"3509470","MEAN_MOTION_DDOT":"0.0000000000000","TLE_LINE2":"2 46589  53.0563  55.8871 0001321  82.3487 277.7652 15.06406636 97682","DECAY_DATE":null,"RCS_SIZE":"LARGE","EPOCH":"2022-07-07T20:26:06.386784","MEAN_ANOMALY":"277.7652","CENTER_NAME":"EARTH","SEMIMAJOR_AXIS":"6925.328","MEAN_MOTION":"15.06406636","INCLINATION":"53.0563","OBJECT_TYPE":"PAYLOAD"},{"RA_OF_ASC_NODE":"55.6285","PERIAPSIS":"546.093","CLASSIFICATION_TYPE":"U","REV_AT_EPOCH":"9675","ELEMENT_SET_NO":"999","LAUNCH_DATE":"2020-10-06","BSTAR":"0.00033527000000","ECCENTRICITY":"0.00015650","TLE_LINE1":"1 46591U 20070BM  22188.90674309  .00004717  00000-0  33527-3 0  9995","EPHEMERIS_TYPE":"0","SITE":"AFETR","OBJECT_ID":"2020-070BM","APOAPSIS":"548.260","MEAN_MOTION_DOT":"0.00004717","GP_ID":"207628259","MEAN_ELEMENT_THEORY":"SGP4","REF_FRAME":"TEME","OBJECT_TYPE":"PAYLOAD","INCLINATION":"53.0546","MEAN_MOTION":"15.06412085","SEMIMAJOR_AXIS":"6925.312","EPOCH":"2022-07-07T21:45:42.602976","CENTER_NAME":"EARTH","MEAN_ANOMALY":"275.1208","RCS_SIZE":"LARGE","DECAY_DATE":null,"TLE_LINE2":"2 46591  53.0546  55.6285 0001565  84.9960 275.1208 15.06412085 96758","MEAN_MOTION_DDOT":"0.0000000000000","FILE":"3509470","TIME_SYSTEM":"UTC","COUNTRY_CODE":"US","NORAD_CAT_ID":"46591","ARG_OF_PERICENTER":"84.9960","PERIOD":"95.591","OBJECT_NAME":"STARLINK-1755"},{"NORAD_CAT_ID":"46671","COUNTRY_CODE":"US","OBJECT_NAME":"STARLINK-1715","PERIOD":"95.592","ARG_OF_PERICENTER":"60.0181","TLE_LINE2":"2 46671  53.0544 146.0414 0002034  60.0181 300.1009 15.06406151 94962","TIME_SYSTEM":"UTC","FILE":"3509470","MEAN_MOTION_DDOT":"0.0000000000000","RCS_SIZE":"LARGE","CENTER_NAME":"EARTH","MEAN_ANOMALY":"300.1009","EPOCH":"2022-07-07T20:51:20.931264","SEMIMAJOR_AXIS":"6925.330","DECAY_DATE":null,"OBJECT_TYPE":"PAYLOAD","MEAN_MOTION":"15.06406151","INCLINATION":"53.0544","MEAN_ELEMENT_THEORY":"SGP4","REF_FRAME":"TEME","SITE":"AFETR","EPHEMERIS_TYPE":"0","MEAN_MOTION_DOT":"0.00001536","GP_ID":"207628994","APOAPSIS":"548.603","OBJECT_ID":"2020-073B","LAUNCH_DATE":"2020-10-18","REV_AT_EPOCH":"9496","ELEMENT_SET_NO":"999","ECCENTRICITY":"0.00020340","TLE_LINE1":"1 46671U 20073B   22188.86899226  .00001536  00000-0  12198-3 0  9996","BSTAR":"0.00012198000000","RA_OF_ASC_NODE":"146.0414","CLASSIFICATION_TYPE":"U","PERIAPSIS":"545.786"},{"SEMIMAJOR_AXIS":"6925.351","EPOCH":"2022-07-07T03:44:55.832928","CENTER_NAME":"EARTH","MEAN_ANOMALY":"301.2824","RCS_SIZE":"LARGE","DECAY_DATE":null,"OBJECT_TYPE":"PAYLOAD","INCLINATION":"53.0564","MEAN_MOTION":"15.06399356","COUNTRY_CODE":"US","NORAD_CAT_ID":"46672","PERIOD":"95.592","ARG_OF_PERICENTER":"58.8363","OBJECT_NAME":"STARLINK-1716","TLE_LINE2":"2 46672  53.0564 144.0014 0002030  58.8363 301.2824 15.06399356 94934","MEAN_MOTION_DDOT":"0.0000000000000","FILE":"3509293","TIME_SYSTEM":"UTC","REV_AT_EPOCH":"9493","ELEMENT_SET_NO":"999","LAUNCH_DATE":"2020-10-18","BSTAR":"0.00018952000000","TLE_LINE1":"1 46672U 20073C   22188.15620177  .00002542  00000-0  18952-3 0  9998","ECCENTRICITY":"0.00020300","RA_OF_ASC_NODE":"144.0014","PERIAPSIS":"545.810","CLASSIFICATION_TYPE":"U","MEAN_ELEMENT_THEORY":"SGP4","REF_FRAME":"TEME","EPHEMERIS_TYPE":"0","SITE":"AFETR","OBJECT_ID":"2020-073C","APOAPSIS":"548.621","GP_ID":"207599567","MEAN_MOTION_DOT":"0.00002542"},{"MEAN_ELEMENT_THEORY":"SGP4","REF_FRAME":"TEME","SITE":"AFETR","EPHEMERIS_TYPE":"0","APOAPSIS":"548.588","GP_ID":"207628772","MEAN_MOTION_DOT":"-0.00000260","OBJECT_ID":"2020-073D","LAUNCH_DATE":"2020-10-18","REV_AT_EPOCH":"9482","ELEMENT_SET_NO":"999","ECCENTRICITY":"0.00019890","TLE_LINE1":"1 46673U 20073D   22188.86806570 -.00000260  00000-0  14411-5 0  9994","BSTAR":"0.00000144110000","RA_OF_ASC_NODE":"155.9247","CLASSIFICATION_TYPE":"U","PERIAPSIS":"545.833","NORAD_CAT_ID":"46673","COUNTRY_CODE":"US","OBJECT_NAME":"STARLINK-1717","ARG_OF_PERICENTER":"63.3417","PERIOD":"95.592","TLE_LINE2":"2 46673  53.0530 155.9247 0001989  63.3417 296.7776 15.06401050 94827","TIME_SYSTEM":"UTC","MEAN_MOTION_DDOT":"0.0000000000000","FILE":"3509470","RCS_SIZE":"LARGE","SEMIMAJOR_AXIS":"6925.345","CENTER_NAME":"EARTH","MEAN_ANOMALY":"296.7776","EPOCH":"2022-07-07T20:50:00.876480","DECAY_DATE":null,"OBJECT_TYPE":"PAYLOAD","INCLINATION":"53.0530","MEAN_MOTION":"15.06401050"}];
